STARLINK-31760          
1 59869U 24098M   25352.15730964  .00017025  00000+0  62568-3 0  9996
2 59869  42.9988  18.7202 0001137 263.2007  96.8716 15.27637387 89374
STARLINK-31945          
1 59870U 24098N   25352.09097893  .00000445  00000+0  25688-4 0  9999
2 59870  43.0005  14.7566 0002261 284.7124  75.3477 15.27597059 89416
STARLINK-31937          
1 59871U 24098P   25352.33004602 -.00000310  00000+0 -17396-5 0  9994
2 59871  43.0041  10.5173 0001770 271.0588  89.0061 15.27583477 89489
STARLINK-31940          
1 59873U 24098R   25352.08374318  .00002279  00000+0  92264-4 0  9992
2 59873  43.0024  11.2439 0002383 273.0647  86.9932 15.27600695 89456
STARLINK-31933          
1 59874U 24098S   25352.13163795 -.00002683  00000+0 -88015-4 0  9994
2 59874  43.0019  18.5305 0000644 295.4025  64.6760 15.27578329 89370
STARLINK-31936          
1 59875U 24098T   25352.26271380  .00000747  00000+0  36672-4 0  9998
2 59875  43.0040 345.5148 0000942 265.3195  94.7550 15.27580013 89754
STARLINK-31935          
1 59876U 24098U   25352.08809334  .00000043  00000+0  11095-4 0  9996
2 59876  43.0017  19.0618 0001276 273.1443  86.9262 15.27581888 89369
STARLINK-31934          
1 59877U 24098V   25352.11669886 -.00001327  00000+0 -38712-4 0  9990
2 59877  43.0031  14.9524 0000936 282.9438  77.1309 15.27577297 89419
STARLINK-31943          
1 59878U 24098W   25352.11459099 -.00003774  00000+0 -12767-3 0  9993
2 59878  42.9986  22.7232 0000521 290.5640  69.5155 15.27589140 88671
STARLINK-31926          
1 59879U 24098X   25352.09333781 -.00001995  00000+0 -63036-4 0  9999
2 59879  43.0022   8.3048 0000896 269.1411  90.9338 15.27568244 89486
STARLINK-31919          
1 59880U 24098Y   25352.13934404 -.00004649  00000+0 -15955-3 0  9990
2 59880  43.0040  18.5886 0001333 282.0159  78.0543 15.27570357 89372
STARLINK-31974          
1 59885U 24100A   25351.93531416 -.00000757  00000+0 -17992-4 0  9992
2 59885  42.9995 227.1035 0001028 269.5112  90.5622 15.27579182 88559
STARLINK-31975          
1 59886U 24100B   25352.00326978 -.00000634  00000+0 -13509-4 0  9991
2 59886  43.0000 226.7507 0001128 272.2627  87.8095 15.27579461 88666
STARLINK-31976          
1 59887U 24100C   25352.03877188 -.00002017  00000+0 -63812-4 0  9998
2 59887  42.9992 230.4516 0000961 280.8633  79.2110 15.27568058 88622
STARLINK-31965          
1 59888U 24100D   25352.08021919  .00021498  00000+0  78851-3 0  9997
2 59888  42.9987 226.4673 0001430 271.2625  88.8063 15.27578071 88576
STARLINK-31969          
1 59889U 24100E   25351.99862135 -.00001673  00000+0 -51304-4 0  9990
2 59889  43.0002 223.2588 0001191 269.0293  91.0422 15.27571976 88704
