[{"OBJECT_NAME":"STARLINK-31760","OBJECT_ID":"2024-098M","EPOCH":"2025-12-18T03:46:31.552896","MEAN_MOTION":15.27637387,"ECCENTRICITY":0.00011378,"INCLINATION":42.9988,"RA_OF_ASC_NODE":18.7202,"ARG_OF_PERICENTER":263.2007,"MEAN_ANOMALY":96.8716,"EPHEMERIS_TYPE":0,"CLASSIFICATION_TYPE":"U","NORAD_CAT_ID":59869,"ELEMENT_SET_NO":999,"REV_AT_EPOCH":8937,"BSTAR":0.00062567554,"MEAN_MOTION_DOT":0.00017025,"MEAN_MOTION_DDOT":0},{"OBJECT_NAME":"STARLINK-31945","OBJECT_ID":"2024-098N","EPOCH":"2025-12-18T02:11:00.579552","MEAN_MOTION":15.27597059,"ECCENTRICITY":0.00022614,"INCLINATION":43.0005,"RA_OF_ASC_NODE":14.7566,"ARG_OF_PERICENTER":284.7124,"MEAN_ANOMALY":75.3477,"EPHEMERIS_TYPE":0,"CLASSIFICATION_TYPE":"U","NORAD_CAT_ID":59870,"ELEMENT_SET_NO":999,"REV_AT_EPOCH":8941,"BSTAR":2.5687906e-5,"MEAN_MOTION_DOT":4.45e-6,"MEAN_MOTION_DDOT":0},{"OBJECT_NAME":"STARLINK-31937","OBJECT_ID":"2024-098P","EPOCH":"2025-12-18T07:55:15.976128","MEAN_MOTION":15.27583477,"ECCENTRICITY":0.00017706,"INCLINATION":43.0041,"RA_OF_ASC_NODE":10.5173,"ARG_OF_PERICENTER":271.0588,"MEAN_ANOMALY":89.0061,"EPHEMERIS_TYPE":0,"CLASSIFICATION_TYPE":"U","NORAD_CAT_ID":59871,"ELEMENT_SET_NO":999,"REV_AT_EPOCH":8948,"BSTAR":-1.739634e-6,"MEAN_MOTION_DOT":-3.1e-6,"MEAN_MOTION_DDOT":0},{"OBJECT_NAME":"STARLINK-31940","OBJECT_ID":"2024-098R","EPOCH":"2025-12-18T02:00:35.410752","MEAN_MOTION":15.27600695,"ECCENTRICITY":0.00023833,"INCLINATION":43.0024,"RA_OF_ASC_NODE":11.2439,"ARG_OF_PERICENTER":273.0647,"MEAN_ANOMALY":86.9932,"EPHEMERIS_TYPE":0,"CLASSIFICATION_TYPE":"U","NORAD_CAT_ID":59873,"ELEMENT_SET_NO":999,"REV_AT_EPOCH":8945,"BSTAR":9.2264127e-5,"MEAN_MOTION_DOT":2.279e-5,"MEAN_MOTION_DDOT":0},{"OBJECT_NAME":"STARLINK-31933","OBJECT_ID":"2024-098S","EPOCH":"2025-12-18T03:09:33.518880","MEAN_MOTION":15.27578329,"ECCENTRICITY":6.444e-5,"INCLINATION":43.0019,"RA_OF_ASC_NODE":18.5305,"ARG_OF_PERICENTER":295.4025,"MEAN_ANOMALY":64.676,"EPHEMERIS_TYPE":0,"CLASSIFICATION_TYPE":"U","NORAD_CAT_ID":59874,"ELEMENT_SET_NO":999,"REV_AT_EPOCH":8937,"BSTAR":-8.8014777e-5,"MEAN_MOTION_DOT":-2.683e-5,"MEAN_MOTION_DDOT":0},{"OBJECT_NAME":"STARLINK-31936","OBJECT_ID":"2024-098T","EPOCH":"2025-12-18T06:18:18.472320","MEAN_MOTION":15.27580013,"ECCENTRICITY":9.422e-5,"INCLINATION":43.004,"RA_OF_ASC_NODE":345.5148,"ARG_OF_PERICENTER":265.3195,"MEAN_ANOMALY":94.755,"EPHEMERIS_TYPE":0,"CLASSIFICATION_TYPE":"U","NORAD_CAT_ID":59875,"ELEMENT_SET_NO":999,"REV_AT_EPOCH":8975,"BSTAR":3.6671783e-5,"MEAN_MOTION_DOT":7.47e-6,"MEAN_MOTION_DDOT":0},{"OBJECT_NAME":"STARLINK-31935","OBJECT_ID":"2024-098U","EPOCH":"2025-12-18T02:06:51.264576","MEAN_MOTION":15.27581888,"ECCENTRICITY":0.00012762,"INCLINATION":43.0017,"RA_OF_ASC_NODE":19.0618,"ARG_OF_PERICENTER":273.1443,"MEAN_ANOMALY":86.9262,"EPHEMERIS_TYPE":0,"CLASSIFICATION_TYPE":"U","NORAD_CAT_ID":59876,"ELEMENT_SET_NO":999,"REV_AT_EPOCH":8936,"BSTAR":1.1094722e-5,"MEAN_MOTION_DOT":4.3e-7,"MEAN_MOTION_DDOT":0},{"OBJECT_NAME":"STARLINK-31934","OBJECT_ID":"2024-098V","EPOCH":"2025-12-18T02:48:02.781504","MEAN_MOTION":15.27577297,"ECCENTRICITY":9.36e-5,"INCLINATION":43.0031,"RA_OF_ASC_NODE":14.9524,"ARG_OF_PERICENTER":282.9438,"MEAN_ANOMALY":77.1309,"EPHEMERIS_TYPE":0,"CLASSIFICATION_TYPE":"U","NORAD_CAT_ID":59877,"ELEMENT_SET_NO":999,"REV_AT_EPOCH":8941,"BSTAR":-3.8711754e-5,"MEAN_MOTION_DOT":-1.327e-5,"MEAN_MOTION_DDOT":0},{"OBJECT_NAME":"STARLINK-31943","OBJECT_ID":"2024-098W","EPOCH":"2025-12-18T02:45:00.661536","MEAN_MOTION":15.2758914,"ECCENTRICITY":5.215e-5,"INCLINATION":42.9986,"RA_OF_ASC_NODE":22.7232,"ARG_OF_PERICENTER":290.564,"MEAN_ANOMALY":69.5155,"EPHEMERIS_TYPE":0,"CLASSIFICATION_TYPE":"U","NORAD_CAT_ID":59878,"ELEMENT_SET_NO":999,"REV_AT_EPOCH":8867,"BSTAR":-0.00012766512,"MEAN_MOTION_DOT":-3.774e-5,"MEAN_MOTION_DDOT":0},{"OBJECT_NAME":"STARLINK-31926","OBJECT_ID":"2024-098X","EPOCH":"2025-12-18T02:14:24.386784","MEAN_MOTION":15.27568244,"ECCENTRICITY":8.969e-5,"INCLINATION":43.0022,"RA_OF_ASC_NODE":8.3048,"ARG_OF_PERICENTER":269.1411,"MEAN_ANOMALY":90.9338,"EPHEMERIS_TYPE":0,"CLASSIFICATION_TYPE":"U","NORAD_CAT_ID":59879,"ELEMENT_SET_NO":999,"REV_AT_EPOCH":8948,"BSTAR":-6.3036119e-5,"MEAN_MOTION_DOT":-1.995e-5,"MEAN_MOTION_DDOT":0},{"OBJECT_NAME":"STARLINK-31919","OBJECT_ID":"2024-098Y","EPOCH":"2025-12-18T03:20:39.325056","MEAN_MOTION":15.27570357,"ECCENTRICITY":0.00013334,"INCLINATION":43.004,"RA_OF_ASC_NODE":18.5886,"ARG_OF_PERICENTER":282.0159,"MEAN_ANOMALY":78.0543,"EPHEMERIS_TYPE":0,"CLASSIFICATION_TYPE":"U","NORAD_CAT_ID":59880,"ELEMENT_SET_NO":999,"REV_AT_EPOCH":8937,"BSTAR":-0.00015955185,"MEAN_MOTION_DOT":-4.649e-5,"MEAN_MOTION_DDOT":0},{"OBJECT_NAME":"STARLINK-31974","OBJECT_ID":"2024-100A","EPOCH":"2025-12-17T22:26:51.143424","MEAN_MOTION":15.27579182,"ECCENTRICITY":0.00010286,"INCLINATION":42.9995,"RA_OF_ASC_NODE":227.1035,"ARG_OF_PERICENTER":269.5112,"MEAN_ANOMALY":90.5622,"EPHEMERIS_TYPE":0,"CLASSIFICATION_TYPE":"U","NORAD_CAT_ID":59885,"ELEMENT_SET_NO":999,"REV_AT_EPOCH":8855,"BSTAR":-1.799224e-5,"MEAN_MOTION_DOT":-7.57e-6,"MEAN_MOTION_DDOT":0},{"OBJECT_NAME":"STARLINK-31975","OBJECT_ID":"2024-100B","EPOCH":"2025-12-18T00:04:42.508992","MEAN_MOTION":15.27579461,"ECCENTRICITY":0.00011284,"INCLINATION":43,"RA_OF_ASC_NODE":226.7507,"ARG_OF_PERICENTER":272.2627,"MEAN_ANOMALY":87.8095,"EPHEMERIS_TYPE":0,"CLASSIFICATION_TYPE":"U","NORAD_CAT_ID":59886,"ELEMENT_SET_NO":999,"REV_AT_EPOCH":8866,"BSTAR":-1.3509488e-5,"MEAN_MOTION_DOT":-6.34e-6,"MEAN_MOTION_DDOT":0},{"OBJECT_NAME":"STARLINK-31976","OBJECT_ID":"2024-100C","EPOCH":"2025-12-18T00:55:49.890432","MEAN_MOTION":15.27568058,"ECCENTRICITY":9.612e-5,"INCLINATION":42.9992,"RA_OF_ASC_NODE":230.4516,"ARG_OF_PERICENTER":280.8633,"MEAN_ANOMALY":79.211,"EPHEMERIS_TYPE":0,"CLASSIFICATION_TYPE":"U","NORAD_CAT_ID":59887,"ELEMENT_SET_NO":999,"REV_AT_EPOCH":8862,"BSTAR":-6.3811656e-5,"MEAN_MOTION_DOT":-2.017e-5,"MEAN_MOTION_DDOT":0},{"OBJECT_NAME":"STARLINK-31965","OBJECT_ID":"2024-100D","EPOCH":"2025-12-18T01:55:30.938016","MEAN_MOTION":15.27578071,"ECCENTRICITY":0.00014303,"INCLINATION":42.9987,"RA_OF_ASC_NODE":226.4673,"ARG_OF_PERICENTER":271.2625,"MEAN_ANOMALY":88.8063,"EPHEMERIS_TYPE":0,"CLASSIFICATION_TYPE":"U","NORAD_CAT_ID":59888,"ELEMENT_SET_NO":999,"REV_AT_EPOCH":8857,"BSTAR":0.00078850924,"MEAN_MOTION_DOT":0.00021498,"MEAN_MOTION_DDOT":0},{"OBJECT_NAME":"STARLINK-31969","OBJECT_ID":"2024-100E","EPOCH":"2025-12-17T23:58:00.884640","MEAN_MOTION":15.27571976,"ECCENTRICITY":0.00011919,"INCLINATION":43.0002,"RA_OF_ASC_NODE":223.2588,"ARG_OF_PERICENTER":269.0293,"MEAN_ANOMALY":91.0422,"EPHEMERIS_TYPE":0,"CLASSIFICATION_TYPE":"U","NORAD_CAT_ID":59889,"ELEMENT_SET_NO":999,"REV_AT_EPOCH":8870,"BSTAR":-5.130355e-5,"MEAN_MOTION_DOT":-1.673e-5,"MEAN_MOTION_DDOT":0}]
